[{"OBJECT_NAME":"KANOPUS-V 6","OBJECT_ID":"2018-111B","EPOCH":"2026-03-09T22:12:09.814176","MEAN_MOTION":15.3825551,"ECCENTRICITY":0.00017604,"INCLINATION":97.3733,"RA_OF_ASC_NODE":345.2272,"ARG_OF_PERICENTER":80.4048,"MEAN_ANOMALY":279.7395,"EPHEMERIS_TYPE":0,"CLASSIFICATION_TYPE":"U","NORAD_CAT_ID":43877,"ELEMENT_SET_NO":999,"REV_AT_EPOCH":40024,"BSTAR":0.00059632346,"MEAN_MOTION_DOT":0.00022433,"MEAN_MOTION_DDOT":0},{"OBJECT_NAME":"STARLINK-6191","OBJECT_ID":"2023-061E","EPOCH":"2026-03-09T22:00:01.999584","MEAN_MOTION":15.17749131,"ECCENTRICITY":0.00020752,"INCLINATION":42.9995,"RA_OF_ASC_NODE":195.7809,"ARG_OF_PERICENTER":287.3386,"MEAN_ANOMALY":87.7798,"EPHEMERIS_TYPE":0,"CLASSIFICATION_TYPE":"U","NORAD_CAT_ID":56378,"ELEMENT_SET_NO":999,"REV_AT_EPOCH":567,"BSTAR":0.055577175,"MEAN_MOTION_DOT":0.01251743,"MEAN_MOTION_DDOT":0}]
